OBJECT_NAME,OBJECT_ID,EPOCH,MEAN_MOTION,ECCENTRICITY,INCLINATION,RA_OF_ASC_NODE,ARG_OF_PERICENTER,MEAN_ANOMALY,EPHEMERIS_TYPE,CLASSIFICATION_TYPE,NORAD_CAT_ID,ELEMENT_SET_NO,REV_AT_EPOCH,BSTAR,MEAN_MOTION_DOT,MEAN_MOTION_DDOT
LEMUR-1,2014-033AL,2026-07-19T03:48:34.463808,14.85343146,.00474094,97.7914,349.2620,334.7797,25.1103,0,U,40044,999,65021,.85930136E-4,.697E-5,0
LEMUR-2-GREENBERG,2017-042N,2026-07-18T23:10:12.175680,15.32225124,.00073991,97.3838,20.4677,243.6976,116.3506,0,U,42837,999,49325,.30569296E-3,.9442E-4,0
LEMUR-2-ANDIS,2017-042P,2026-07-18T23:37:06.352320,15.36020423,.00073829,97.3690,20.7854,242.5836,117.4657,0,U,42838,999,49333,.3698312E-3,.12908E-3,0
LEMUR-2-MONSON,2017-042Q,2026-07-19T01:03:14.947200,15.28814251,.00055546,97.4100,20.4679,228.8688,131.2073,0,U,42839,999,49303,.29523745E-3,.8196E-4,0
LEMUR-2-FURIAUS,2017-042R,2026-07-19T07:22:57.122976,15.31210125,.00057076,97.3788,18.6914,311.7105,48.3647,0,U,42840,999,49312,.30778259E-3,.9207E-4,0
LEMUR-2-PETERG,2017-042S,2026-07-19T05:57:01.230624,15.35119284,.00036152,97.4001,25.3614,203.0098,157.0984,0,U,42841,999,49335,.31516451E-3,.10666E-3,0
LEMUR-2-DEMBITZ,2017-042T,2026-07-19T00:00:56.881440,15.31179515,.00051273,97.3837,21.4327,256.6809,103.3861,0,U,42842,999,49321,.29648826E-3,.8857E-4,0
LEMUR-2-ZACHARY,2017-042W,2026-07-19T05:46:51.188736,15.52965979,.00028168,97.3580,32.6222,225.9770,134.1251,0,U,42845,999,49417,.47359452E-3,.29465E-3,0
LEMUR-2-AMANDA-SVANTE,2021-034B,2026-07-19T03:56:11.226912,15.36109547,.00048007,97.5741,279.3353,134.5168,225.6469,0,U,48269,999,28596,.52088061E-3,.18266E-3,0
LEMUR-2-SPECIAL-K,2021-034F,2026-07-19T04:59:29.350176,15.76151622,.00063341,97.5626,289.6600,211.0014,149.0878,0,U,48273,999,28671,.11188334E-2,.17771E-2,0
LEMUR-2-EMBRIONOVIS,2023-084AQ,2026-07-18T22:52:11.709984,15.38290239,.00086498,97.6332,345.3962,192.3713,167.7320,0,U,56970,999,17256,.20967417E-3,.7833E-4,0
LEMUR-2-DEVERILL-M-T,2023-100F,2026-07-19T01:28:33.762432,15.41208729,.0004757,99.4445,248.0651,280.7582,79.3122,0,U,57391,999,16615,.36593481E-3,.1509E-3,0
LEMUR-2-BASS,2023-174D,2026-07-19T05:36:42.952608,15.44075934,.00073904,97.3838,285.4163,66.0870,294.1152,0,U,58259,999,15030,.21180997E-3,.9599E-4,0
LEMUR-2-JK0903EM1407,2023-174CJ,2026-07-19T05:48:58.470624,15.53202178,.00032021,97.3917,291.6526,16.8927,343.2432,0,U,58336,999,15070,.25442426E-3,.15892E-3,0
LEMUR-2-MJR092620,2023-174CN,2026-07-19T06:34:21.419328,15.45953289,.00049071,97.3969,290.9195,15.5389,344.6010,0,U,58340,999,15060,.22051911E-3,.10654E-3,0
LEMUR-2-NIMBUS2000,2024-022A,2026-07-19T03:56:26.377152,15.41217426,.00083364,97.4080,50.5905,14.9087,345.2404,0,U,58899,999,13719,.28424138E-3,.11736E-3,0
LEMUR-2-VALHALLA,2024-022B,2026-07-19T02:32:17.054880,15.40559226,.00088128,97.4078,50.4973,10.6002,349.5428,0,U,58900,999,13718,.20740979E-3,.8353E-4,0
LEMUR-2-CAEL,2024-022E,2026-07-19T02:06:33.146496,15.41933743,.00066872,97.4062,51.4728,355.0880,5.0300,0,U,58903,999,13725,.22324361E-3,.9414E-4,0
LEMUR-2-JOHNNYTRUONG,2024-043BA,2026-07-18T23:54:13.671648,15.62765873,.00038679,97.5405,353.7311,83.5411,276.6287,0,U,59146,999,13300,.27932564E-3,.25016E-3,0
LEMUR-2-TOMATOKECHUP,2024-149D,2026-07-19T05:12:37.808064,15.36630911,.00034158,97.3787,282.3582,114.6997,245.4603,0,U,60471,999,10708,.16204635E-3,.5714E-4,0
LEMUR-2-STELLA,2024-149BT,2026-07-19T04:13:08.210208,15.12417635,.00012338,97.6731,282.7841,123.0801,237.0548,0,U,60533,999,10533,.34820885E-3,.5982E-4,0
LEMUR-2-MARHISYAM,2024-149BW,2026-07-19T04:02:18.013920,15.11820700,.00022704,97.6874,283.2570,63.8052,296.3411,0,U,60536,999,10531,.29918297E-3,.5045E-4,0
LEMUR-2-AHMED-ASRAR,2024-149DN,2026-07-19T04:05:53.018592,15.13356542,.00015622,97.7001,285.4784,187.1525,172.9683,0,U,60576,999,10540,.33035788E-3,.5823E-4,0
LEMUR-2-LLOYD,2024-149DP,2026-07-19T04:35:47.185440,15.09788807,.00043293,97.6732,281.3490,61.6391,298.5274,0,U,60577,999,10522,.29330225E-3,.4674E-4,0
LEMUR-2-SQUIRRELCOMM,2024-149DQ,2026-07-19T04:28:12.683424,15.07467173,.00040148,97.6699,281.0022,307.5122,52.5740,0,U,60578,999,10522,.19489632E-3,.2892E-4,0
LEMUR-2-SIERRINI,2024-149DR,2026-07-19T04:44:53.872800,15.11556798,.0006197,97.6829,282.9443,80.6962,279.4968,0,U,60579,999,10529,.30865722E-3,.5171E-4,0
LEMUR-2-WILSON,2025-009CP,2026-07-19T05:12:25.633440,14.95284101,.00017036,97.7016,278.1201,300.8351,59.2702,0,U,62694,999,8214,.1023846E-3,.1071E-4,0
LEMUR-2-STAR-FOX,2025-009CR,2026-07-19T04:31:11.996256,15.02869858,.00017652,97.6897,281.5669,26.7663,333.3653,0,U,62696,999,8236,.28088674E-3,.3706E-4,0
LEMUR-2-ARIANNA,2025-009CU,2026-07-19T04:28:58.984320,15.02872906,.00020741,97.6840,281.3147,35.4388,324.6975,0,U,62699,999,8236,.29063805E-3,.3837E-4,0
LEMUR-2-ALISIA,2025-009DB,2026-07-19T05:23:46.445568,15.03207871,.00047689,97.6962,282.1855,118.1003,242.0704,0,U,62706,999,10497,.28148087E-3,.3748E-4,0
